OBJECT_NAME,OBJECT_ID,EPOCH,MEAN_MOTION,ECCENTRICITY,INCLINATION,RA_OF_ASC_NODE,ARG_OF_PERICENTER,MEAN_ANOMALY,EPHEMERIS_TYPE,CLASSIFICATION_TYPE,NORAD_CAT_ID,ELEMENT_SET_NO,REV_AT_EPOCH,BSTAR,MEAN_MOTION_DOT,MEAN_MOTION_DDOT
AISTECHSAT 2,2018-099L,2026-07-11T17:10:48.288288,15.15692770,.0004265,97.4284,240.2143,192.0026,168.1106,0,U,43768,999,41599,.15025E-3,.2795E-4,0
FOX-1CLIFF (AO-95),2018-099N,2026-07-11T03:03:59.509440,15.27218021,.00070107,97.4378,252.2917,257.0089,103.0367,0,U,43770,999,41687,.26022065E-3,.6872E-4,0
RANGE-A,2018-099R,2026-07-09T15:46:08.743296,15.13579951,.0008493,97.3959,232.5795,267.8830,92.1429,0,U,43773,999,41589,.18729816E-3,.3299E-4,0
SNUSAT-2,2018-099AA,2026-07-11T03:11:10.030272,15.22201002,.00097645,97.4052,245.1517,202.2456,157.8358,0,U,43782,999,41667,.20463128E-3,.4635E-4,0
SNUGLITE,2018-099AC,2026-07-11T15:28:31.515744,15.27707402,.000325,97.3863,246.6897,168.6794,191.4519,0,U,43784,999,41705,.25068E-3,.6714E-4,0
ITASAT,2018-099AE,2026-07-11T17:18:45.961056,15.19355375,.0010794,97.4021,243.7457,264.3546,95.6458,0,U,43786,999,41663,.17043E-3,.3539E-4,0
EAGLET-I,2018-099AJ,2026-07-11T15:43:00.198624,15.13118239,.0009469,97.4223,241.6759,258.4389,101.5780,0,U,43790,999,41603,.11646E-3,.2E-4,0
THEA,2018-099AQ,2026-07-11T18:30:45.140256,15.35857054,.0007689,97.4439,262.7149,185.7888,174.3268,0,U,43796,999,41646,.30649E-3,.10624E-3,0
ASTROCAST 0.1,2018-099AS,2026-07-11T18:53:39.404832,15.51278683,.0005876,97.4385,272.0791,144.9859,215.1780,0,U,43798,999,41824,.39345E-3,.23019E-3,0
CENTAURI-1,2018-099BD,2026-07-11T16:27:59.866848,15.16603436,.001272,97.4214,243.8810,238.2570,121.7424,0,U,43809,999,41621,.17705E-3,.3399E-4,0
GLOBAL-2,2018-099BG,2026-07-11T14:44:19.254336,15.08814097,.0007628,97.3549,228.1117,76.9899,283.2181,0,U,43812,999,41559,.91054E-4,.1373E-4,0
SEAHAWK-1,2018-099BQ,2026-07-11T15:26:00.422880,15.23202069,.000748,97.3948,244.7594,211.7845,148.2941,0,U,43820,999,41625,.22168E-3,.5177E-4,0
ISAT,2018-111D,2026-07-11T19:13:16.488192,15.70261010,.0007139,97.5861,130.0063,146.3017,213.8700,0,U,43879,999,41502,.63878E-3,.78043E-3,0
UWE-4,2018-111E,2026-07-09T06:35:43.813824,15.47549208,.00052707,97.5841,119.7053,218.3666,141.7210,0,U,43880,999,41419,.53767723E-3,.2764E-3,0
D-STAR ONE (SPARROW),2018-111F,2026-07-11T18:55:13.674144,15.83665674,.0006711,97.6096,136.1309,142.9832,217.1901,0,U,43881,999,41525,.77361E-3,.172546E-2,0
WT 1B,2019-032G,2026-07-11T17:23:40.199712,15.27684575,.0008695,44.9735,286.9553,14.9834,345.1305,0,U,44316,999,39083,.3021E-3,.8046E-4,0
PROX-1,2019-036A,2026-07-11T10:03:45.791136,14.91197560,.00056949,23.9958,312.3099,324.7055,35.3067,0,U,44339,999,37709,.68270783E-3,.7239E-4,0
FORMOSAT 7-3,2019-036E,2026-07-10T18:37:40.423584,15.09974002,.00005752,24.0004,16.1663,164.5556,195.4965,0,U,44343,999,38681,.16264431E-3,.3056E-4,0
