AISTECHSAT 2            
1 43768U 18099L   26192.71583667  .00002795  00000+0  15025-3 0  9996
2 43768  97.4284 240.2143 0004264 192.0026 168.1106 15.15692770415990
FOX-1CLIFF (AO-95)      
1 43770U 18099N   26192.12777210  .00006872  00000+0  26022-3 0  9992
2 43770  97.4378 252.2917 0007010 257.0089 103.0367 15.27218021416873
RANGE-A                 
1 43773U 18099R   26190.65704564  .00003299  00000+0  18730-3 0  9990
2 43773  97.3959 232.5795 0008493 267.8830  92.1429 15.13579951415899
SNUSAT-2                
1 43782U 18099AA  26192.13275498  .00004635  00000+0  20463-3 0  9995
2 43782  97.4052 245.1517 0009764 202.2456 157.8358 15.22201002416671
SNUGLITE                
1 43784U 18099AC  26192.64480922  .00006714  00000+0  25068-3 0  9999
2 43784  97.3863 246.6897 0003249 168.6794 191.4519 15.27707403417058
ITASAT                  
1 43786U 18099AE  26192.72136529  .00003539  00000+0  17043-3 0  9997
2 43786  97.4021 243.7457 0010794 264.3546  95.6458 15.19355375416637
EAGLET-I                
1 43790U 18099AJ  26192.65486342  .00002000  00000+0  11646-3 0  9990
2 43790  97.4223 241.6759 0009468 258.4389 101.5780 15.13118239416032
THEA                    
1 43796U 18099AQ  26192.77135579  .00010624  00000+0  30649-3 0  9997
2 43796  97.4439 262.7149 0007689 185.7888 174.3268 15.35857054416468
ASTROCAST 0.1           
1 43798U 18099AS  26192.78726164  .00023019  00000+0  39345-3 0  9990
2 43798  97.4385 272.0791 0005875 144.9859 215.1780 15.51278683418241
CENTAURI-1              
1 43809U 18099BD  26192.68610958  .00003399  00000+0  17705-3 0  9990
2 43809  97.4214 243.8810 0012720 238.2570 121.7424 15.16603436416218
GLOBAL-2                
1 43812U 18099BG  26192.61411174  .00001373  00000+0  91054-4 0  9996
2 43812  97.3549 228.1117 0007627  76.9899 283.2181 15.08814097415591
SEAHAWK-1               
1 43820U 18099BQ  26192.64306046  .00005177  00000+0  22168-3 0  9994
2 43820  97.3948 244.7594 0007480 211.7845 148.2941 15.23202069416258
ISAT                    
1 43879U 18111D   26192.80088528  .00078043  00000+0  63878-3 0  9998
2 43879  97.5861 130.0063 0007139 146.3017 213.8700 15.70261010415020
UWE-4                   
1 43880U 18111E   26190.27481266  .00027640  00000+0  53768-3 0  9999
2 43880  97.5841 119.7053 0005270 218.3666 141.7210 15.47549208414191
D-STAR ONE (SPARROW)    
1 43881U 18111F   26192.78835271  .00172546  00000+0  77361-3 0  9998
2 43881  97.6096 136.1309 0006711 142.9832 217.1901 15.83665674415259
WT 1B                   
1 44316U 19032G   26192.72477083  .00008046  00000+0  30210-3 0  9997
2 44316  44.9735 286.9553 0008695  14.9834 345.1305 15.27684575390831
PROX-1                  
1 44339U 19036A   26192.41927999  .00007239  00000+0  68271-3 0  9999
2 44339  23.9958 312.3099 0005694 324.7055  35.3067 14.91197560377091
FORMOSAT 7-3            
1 44343U 19036E   26191.77616231  .00003056  00000+0  16264-3 0  9994
2 44343  24.0004  16.1663 0000575 164.5556 195.4965 15.09974002386814
